NORAD_CAT_ID,OBJECT_NAME,OBJECT_TYPE,EPOCH,MEAN_MOTION,ECCENTRICITY,INCLINATION,RA_OF_ASC_NODE,ARG_OF_PERICENTER,MEAN_ANOMALY,BSTAR,MEAN_MOTION_DOT,MEAN_MOTION_DDOT,TLE_LINE0,TLE_LINE1,TLE_LINE2,SEMIMAJOR_AXIS,PERIOD,APOGEE,PERIGEE,DECAYED
52303.0,STARLINK-3742,PAYLOAD,2022-04-25 18:00:00,15.8216105,0.0001357,53.2178,354.8242,51.3268,164.4699,-0.0046272,-0.00877661,0.0,0 STARLINK-3742,1 52303U 22041AU  22115.75001157 -.00877661  00000-0 -46272-2 0  9999,2 52303  53.2178 354.8242 0001357  51.3268 164.4699 15.82161050  1874,6702.467,91.015,325.242,323.423,0.0
52303.0,STARLINK-3742,PAYLOAD,2022-04-26 14:00:01,15.80587038,0.0001134,53.2173,350.6492,64.78,217.9405,-0.0049733999999999,-0.00876413,0.0,0 STARLINK-3742,1 52303U 22041AU  22116.58335648 -.00876413  00000-0 -49734-2 0  9996,2 52303  53.2173 350.6492 0001134  64.7800 217.9405 15.80587038  2004,6706.916,91.105,329.542,328.021,0.0
52303.0,STARLINK-3742,PAYLOAD,2022-04-26 22:00:00,15.79959815,0.0001054,53.2175,348.9846,70.1805,309.8915,-0.0051385,-0.0087928,0.0,0 STARLINK-3742,1 52303U 22041AU  22116.91667824 -.00879280  00000-0 -51385-2 0  9997,2 52303  53.2175 348.9846 0001054  70.1805 309.8915 15.79959815  1477,6708.691,91.142,331.2630000000001,329.849,0.0
52303.0,STARLINK-3742,PAYLOAD,2022-04-27 12:00:00,15.7885592,0.000116,53.2173,346.0693,56.5041,42.2346,-0.0053746,-0.00874787,0.0,0 STARLINK-3742,1 52303U 22041AU  22117.50001157 -.00874787  00000-0 -53746-2 0  9994,2 52303  53.2173 346.0693 0001160  56.5041  42.2346 15.78855920  2144,6711.818,91.205,334.462,332.904,0.0
52303.0,STARLINK-3742,PAYLOAD,2022-04-27 14:00:01,15.78700057,0.0001252,53.2174,345.6533,66.074,146.6357,-0.0054264,-0.00876789,0.0,0 STARLINK-3742,1 52303U 22041AU  22117.58335648 -.00876789  00000-0 -54264-2 0  9997,2 52303  53.2174 345.6533 0001252  66.0740 146.6357 15.78700057  1574,6712.26,91.214,334.965,333.284,0.0
52303.0,STARLINK-3742,PAYLOAD,2022-04-28 04:00:01,15.77599798,0.0001069,53.2172,342.7475,74.7488,213.9768,-0.0057068,-0.0087716,0.0,0 STARLINK-3742,1 52303U 22041AU  22118.16668981 -.00877160  00000-0 -57068-2 0  9990,2 52303  53.2172 342.7475 0001069  74.7488 213.9768 15.77599798  2253,6715.38,91.278,337.963,336.527,0.0
52303.0,STARLINK-3742,PAYLOAD,2022-04-28 14:00:01,15.76811902,0.0001296999999999,53.2175,340.6713,55.3042,80.5237,-0.0058984,-0.00875377,0.0,0 STARLINK-3742,1 52303U 22041AU  22118.58334491 -.00875377  00000-0 -58984-2 0  9998,2 52303  53.2175 340.6713 0001297  55.3042  80.5237 15.76811902  1736,6717.6169999999975,91.324,340.353,338.611,0.0
52303.0,STARLINK-3742,PAYLOAD,2022-04-29 04:00:00,15.75711507,0.0001198,53.2172,337.7733,71.3585,136.516,-0.0062081,-0.00877111,0.0,0 STARLINK-3742,1 52303U 22041AU  22119.16667824 -.00877111  00000-0 -62081-2 0  9993,2 52303  53.2172 337.7733 0001198  71.3585 136.5160 15.75711507  2414,6720.744000000002,91.387,343.414,341.8040000000001,0.0
52303.0,STARLINK-3742,PAYLOAD,2022-04-29 14:00:01,15.74922593,0.0001125,53.2175,335.7032,58.1971,354.0095,-0.0063912,-0.00872575,0.0,0 STARLINK-3742,1 52303U 22041AU  22119.58334491 -.00872575  00000-0 -63912-2 0  9993,2 52303  53.2175 335.7032 0001125  58.1971 354.0095 15.74922593  1892,6722.988,91.433,345.61,344.097,0.0
52303.0,STARLINK-3742,PAYLOAD,2022-04-29 22:00:00,15.74295501,0.0001353,53.2173,334.0524,54.8467,87.9716,-0.0066016,-0.00876544,0.0,0 STARLINK-3742,1 52303U 22041AU  22119.91667824 -.00876544  00000-0 -66016-2 0  9997,2 52303  53.2173 334.0524 0001353  54.8467  87.9716 15.74295501  1944,6724.774,91.469,347.5490000000001,345.72900000000016,0.0
52303.0,STARLINK-3742,PAYLOAD,2022-04-30 06:00:00,15.73509863,0.0001279,53.2173,332.3999,64.0678,168.636,-0.0031803,-0.00430556,0.0,0 STARLINK-3742,1 52303U 22041AU  22120.25001157 -.00430556  00000-0 -31803-2 0  9992,2 52303  53.2173 332.3999 0001279  64.0678 168.6360 15.73509863  2586,6727.012,91.515,349.737,348.017,0.0
52303.0,STARLINK-3742,PAYLOAD,2022-04-30 12:00:00,15.73204915,0.0001299,53.2172,331.1611,57.0,152.5775,-1.2639e-05,-2.394e-05,0.0,0 STARLINK-3742,1 52303U 22041AU  22120.50001157 -.00002394  00000-0 -12639-4 0  9993,2 52303  53.2172 331.1611 0001299  57.0000 152.5775 15.73204915  2623,6727.880999999999,91.533,350.62,348.872,0.0
52303.0,STARLINK-3742,PAYLOAD,2022-04-30 14:00:01,15.73204801,0.0001267,53.2176,330.7488,60.5191,261.2914,1.6179e-06,-3.93e-06,0.0,0 STARLINK-3742,1 52303U 22041AU  22120.58334491 -.00000393  00000-0  16179-5 0  9991,2 52303  53.2176 330.7488 0001267  60.5191 261.2914 15.73204801  2053,6727.880999999999,91.533,350.599,348.894,0.0
52303.0,STARLINK-3742,PAYLOAD,2022-04-30 20:00:01,15.73282772,0.0001288,53.2146,329.5121,52.0834,246.5579,-0.00065772,-0.00092246,0.0,0 STARLINK-3742,1 52303U 22041AU  22120.83334491 -.00092246  00000-0 -65772-3 0  9999,2 52303  53.2146 329.5121 0001288  52.0834 246.5579 15.73282772  2677,6727.659000000002,91.528,350.391,348.658,0.0
52303.0,STARLINK-3742,PAYLOAD,2022-04-30 22:00:00,15.7332826,0.0001489,53.215,329.1005,48.0222,2.8605,-0.0018076,-0.00248332,0.0,0 STARLINK-3742,1 52303U 22041AU  22120.91667824 -.00248332  00000-0 -18076-2 0  9990,2 52303  53.2150 329.1005 0001489  48.0222   2.8605 15.73328260  2102,6727.53,91.526,350.396,348.39300000000014,0.0
52303.0,STARLINK-3742,PAYLOAD,2022-05-01 06:00:00,15.7328337,0.0001274,53.2141,327.4482,51.5532,88.3304,-0.00020545,-0.00029456,0.0,0 STARLINK-3742,1 52303U 22041AU  22121.25001157 -.00029456  00000-0 -20545-3 0  9998,2 52303  53.2141 327.4482 0001274  51.5532  88.3304 15.73283370  2733,6727.656999999997,91.528,350.38,348.665,0.0
52303.0,STARLINK-3742,PAYLOAD,2022-05-01 12:00:00,15.73262515,0.0001401,53.2146,326.2099,62.1024,54.503,-0.00095915,-0.00133474,0.0,0 STARLINK-3742,1 52303U 22041AU  22121.50001157 -.00133474  00000-0 -95915-3 0  9995,2 52303  53.2146 326.2099 0001401  62.1024  54.5030 15.73262515  2778,6727.717,91.53,350.524,348.639,0.0
52303.0,STARLINK-3742,PAYLOAD,2022-05-01 14:00:01,15.7323497,0.0001484,53.2148,325.7977,64.8537,163.9986,-0.00079941,-0.00111506,0.0,0 STARLINK-3742,1 52303U 22041AU  22121.58334491 -.00111506  00000-0 -79941-3 0  9996,2 52303  53.2148 325.7977 0001484  64.8537 163.9986 15.73234970  2216,6727.795,91.531,350.659,348.662,0.0
52303.0,STARLINK-3742,PAYLOAD,2022-05-01 22:00:01,15.73155965,0.0001648,53.2147,324.1502,58.6462,259.1794,-0.00026693,-0.00037845,0.0,0 STARLINK-3742,1 52303U 22041AU  22121.91668981 -.00037845  00000-0 -26693-3 0  9996,2 52303  53.2147 324.1502 0001648  58.6462 259.1794 15.73155965  2268,6728.021,91.536,350.995,348.777,0.0
52303.0,STARLINK-3742,PAYLOAD,2022-05-02 04:00:00,15.73077148,0.0001449,53.2144,322.9123,54.1634,240.2304,0.0008689,0.0012247,0.0,0 STARLINK-3742,1 52303U 22041AU  22122.16667824  .00122470  00000-0  86890-3 0  9991,2 52303  53.2144 322.9123 0001449  54.1634 240.2304 15.73077148  2883,6728.245,91.54,351.085,349.136,0.0
52303.0,STARLINK-3742,PAYLOAD,2022-05-02 14:00:01,15.73239676,0.000129,53.2151,320.8491,58.9639,76.4684,-0.00011549,-0.00016823,0.0,0 STARLINK-3742,1 52303U 22041AU  22122.58334491 -.00016823  00000-0 -11549-3 0  9993,2 52303  53.2151 320.8491 0001290  58.9639  76.4684 15.73239676  2366,6727.781999999997,91.531,350.515,348.779,0.0
52303.0,STARLINK-3742,PAYLOAD,2022-05-02 20:00:01,15.73222494,0.0001515,53.2149,319.6135,50.918,61.2521,-0.00025323,-0.00036042,0.0,0 STARLINK-3742,1 52303U 22041AU  22122.83334491 -.00036042  00000-0 -25323-3 0  9991,2 52303  53.2149 319.6135 0001515  50.9180  61.2521 15.73222494  2987,6727.831,91.532,350.715,348.677,0.0
52303.0,STARLINK-3742,PAYLOAD,2022-05-02 22:00:01,15.73176414,0.0001619,53.2151,319.2014,50.4477,174.0376,0.00041443,0.00057886,0.0,0 STARLINK-3742,1 52303U 22041AU  22122.91668981  .00057886  00000-0  41443-3 0  9992,2 52303  53.2151 319.2014 0001619  50.4477 174.0376 15.73176414  2421,6727.962,91.535,350.917,348.73800000000006,0.0
52303.0,STARLINK-3742,PAYLOAD,2022-05-03 12:00:00,15.73174021,0.0001595999999999,53.2148,316.3123,62.3171,227.7347,0.000637,0.00089639,0.0,0 STARLINK-3742,1 52303U 22041AU  22123.50001157  .00089639  00000-0  63700-3 0  9995,2 52303  53.2148 316.3123 0001596  62.3171 227.7347 15.73174021  3093,6727.969,91.535,350.908,348.76,0.0
52303.0,STARLINK-3742,PAYLOAD,2022-05-03 14:00:01,15.73210616,0.0001601,53.2149,315.9004,61.4798,340.7924,0.00027207,0.00037752,0.0,0 STARLINK-3742,1 52303U 22041AU  22123.58334491  .00037752  00000-0  27207-3 0  9994,2 52303  53.2149 315.9004 0001601  61.4798 340.7924 15.73210616  2524,6727.865,91.533,350.807,348.653,0.0
52303.0,STARLINK-3742,PAYLOAD,2022-05-03 20:00:01,15.73249421,0.0001608,53.2147,314.6649,52.1366,326.8479,-0.00040141,-0.00056698,0.0,0 STARLINK-3742,1 52303U 22041AU  22123.83334491 -.00056698  00000-0 -40141-3 0  9996,2 52303  53.2147 314.6649 0001608  52.1366 326.8479 15.73249421  3143,6727.754,91.53,350.701,348.537,0.0
52303.0,STARLINK-3742,PAYLOAD,2022-05-03 22:00:00,15.73210129,0.0001588,53.2147,314.2528,48.6707,82.5671,0.00013548,0.00018443,0.0,0 STARLINK-3742,1 52303U 22041AU  22123.91667824  .00018443  00000-0  13548-3 0  9999,2 52303  53.2147 314.2528 0001588  48.6707  82.5671 15.73210129  2581,6727.866,91.533,350.8,348.663,0.0
52303.0,STARLINK-3742,PAYLOAD,2022-05-04 04:00:00,15.73224559,0.0001459,53.2145,313.0144,47.405,60.5374,0.0001743,0.00023937,0.0,0 STARLINK-3742,1 52303U 22041AU  22124.16667824  .00023937  00000-0  17430-3 0  9995,2 52303  53.2145 313.0144 0001459  47.4050  60.5374 15.73224559  3191,6727.825,91.532,350.672,348.709,0.0
52303.0,STARLINK-3742,PAYLOAD,2022-05-04 14:00:01,15.73298302,0.0001448,53.2151,310.9514,53.824,255.3211,-0.00062517,-0.00087817,0.0,0 STARLINK-3742,1 52303U 22041AU  22124.58334491 -.00087817  00000-0 -62517-3 0  9997,2 52303  53.2151 310.9514 0001448  53.8240 255.3211 15.73298302  2689,6727.615,91.527,350.454,348.506,0.0
